     3.05           N: GNSS NAV DATA    E: Galileo          RINEX VERSION / TYPE
BNC 2.13.0          BKG Frankfurt       20240531 091622 UTC PGM / RUN BY / DATE
Concatenated RINEX files (17)                               COMMENT
                                                            END OF HEADER
E04 2024 05 30 21 30 00-4.095854819752e-04-9.080736163014e-12 0.000000000000e+00
     7.000000000000e+01-1.376875000000e+02 3.304780514516e-09-2.592920373998e+00
    -6.554648280144e-06 3.699001390487e-04 7.120892405510e-06 5.440629518509e+03
     4.230000000000e+05 3.539025783539e-08-2.132781323291e+00 1.862645149231e-08
     9.611296952525e-01 1.864375000000e+02-1.175677543483e+00-5.799884445610e-09
    -3.214419607765e-10 2.580000000000e+02 2.316000000000e+03 0.000000000000e+00
     3.120000000000e+00 0.000000000000e+00-4.656612873077e-09 0.000000000000e+00
     4.237400000000e+05                                                         
E19 2024 05 30 21 30 00 3.109849058092e-05 6.815525921411e-11 0.000000000000e+00
     7.000000000000e+01-1.424687500000e+02 3.265493163755e-09-1.553711109893e+00
    -6.563961505890e-06 3.675778862089e-04 7.588416337967e-06 5.440622512817e+03
     4.230000000000e+05 4.656612873077e-08-2.127852352906e+00-1.862645149231e-08
     9.666584254778e-01 1.740312500000e+02-1.331070706061e+00-5.780955085698e-09
    -3.482287908412e-10 2.580000000000e+02 2.316000000000e+03 0.000000000000e+00
     3.120000000000e+00 0.000000000000e+00-5.355104804039e-09 0.000000000000e+00
     4.237400000000e+05                                                         
E15 2024 05 30 21 30 00-1.059829955921e-04-2.202682480856e-12 0.000000000000e+00
     7.000000000000e+01 5.800000000000e+01 2.471174362903e-09 1.304966796694e+00
     2.661719918251e-06 1.684309681877e-04 9.139999747276e-06 5.440609674454e+03
     4.230000000000e+05-9.313225746155e-09 2.058842448972e+00 4.284083843231e-08
     9.999380782232e-01 1.607812500000e+02 1.931897284991e-01-5.344508334510e-09
     1.496490906282e-10 2.580000000000e+02 2.316000000000e+03 0.000000000000e+00
     3.120000000000e+00 0.000000000000e+00 4.889443516731e-09 0.000000000000e+00
     4.237400000000e+05                                                         
E02 2024 05 30 21 30 00 1.316011766900e-04 3.026912054340e-12 0.000000000000e+00
     7.000000000000e+01 7.162500000000e+01 3.198704667460e-09-2.453640325110e+00
     3.360211849210e-06 2.201688475910e-04 6.115064024930e-06 5.440613462450e+03
     4.230000000000e+05-2.793967723850e-08-3.025007667710e-02-2.048909664150e-08
     9.668178952520e-01 2.132500000000e+02 5.459520273100e-01-5.719523955420e-09
     8.464638300450e-11 5.170000000000e+02 2.316000000000e+03 0.000000000000e+00
     3.120000000000e+00 0.000000000000e+00-4.190951585770e-09-5.820766091350e-09
     4.237240000000e+05                                                         
E02 2024 05 30 21 30 00 1.316022826359e-04 3.026912054338e-12 0.000000000000e+00
     7.000000000000e+01 7.162500000000e+01 3.198704667460e-09-2.453640325111e+00
     3.360211849213e-06 2.201688475907e-04 6.115064024925e-06 5.440613462448e+03
     4.230000000000e+05-2.793967723846e-08-3.025007667711e-02-2.048909664154e-08
     9.668178952518e-01 2.132500000000e+02 5.459520273105e-01-5.719523955416e-09
     8.464638300447e-11 2.580000000000e+02 2.316000000000e+03 0.000000000000e+00
     3.120000000000e+00 0.000000000000e+00-4.190951585770e-09 0.000000000000e+00
     4.237400000000e+05                                                         
E08 2024 05 30 21 30 00-2.791207516566e-04-6.082245818106e-12 0.000000000000e+00
     7.000000000000e+01-1.151875000000e+02 3.172632152864e-09-1.697776439889e-01
    -5.563721060753e-06 3.429026110098e-04 7.404014468193e-06 5.440616537094e+03
     4.230000000000e+05-4.842877388000e-08-2.132969899284e+00 2.980232238770e-08
     9.669581876327e-01 1.833125000000e+02-4.226796683848e-01-5.652735459121e-09
    -2.953694461802e-10 2.580000000000e+02 2.316000000000e+03 0.000000000000e+00
     3.120000000000e+00 0.000000000000e+00-6.519258022308e-09 0.000000000000e+00
     4.237400000000e+05                                                         
E03 2024 05 30 21 40 00-1.171900657940e-04-2.529532139310e-12 0.000000000000e+00
     7.100000000000e+01-1.121250000000e+02 3.312995142400e-09 4.180365185450e-01
    -5.161389708520e-06 3.279291559010e-04 6.703659892080e-06 5.440616958620e+03
     4.236000000000e+05-3.166496753690e-08-2.132899951320e+00-8.754432201390e-08
     9.610907523730e-01 1.910625000000e+02-1.669205152410e-01-5.800598761080e-09
    -2.664396697100e-10 5.170000000000e+02 2.316000000000e+03 0.000000000000e+00
     3.120000000000e+00 0.000000000000e+00 4.656612873080e-10 0.000000000000e+00
     4.242640000000e+05                                                         
E09 2024 05 30 21 40 00-4.619851824830e-04-1.374189650960e-11 0.000000000000e+00
     7.100000000000e+01-1.340937500000e+02 3.225134339790e-09 2.322491593300e+00
    -6.239861249920e-06 4.041355568920e-04 6.796792149540e-06 5.440618614200e+03
     4.236000000000e+05 5.215406417850e-08-2.132934104600e+00-1.862645149230e-08
     9.669862069030e-01 1.995937500000e+02-4.867938847820e-01-5.730595845180e-09
    -2.660825119760e-10 5.170000000000e+02 2.316000000000e+03 0.000000000000e+00
     3.120000000000e+00 0.000000000000e+00 0.000000000000e+00-4.656612873080e-10
     4.242640000000e+05                                                         
E25 2024 05 30 21 40 00 5.146197509020e-06 4.547473508860e-13 0.000000000000e+00
     7.100000000000e+01 7.490625000000e+01 3.271922002970e-09 6.101379003610e-01
     3.457069396970e-06 1.183684216810e-04 6.079673767090e-06 5.440604394910e+03
     4.236000000000e+05 5.587935447690e-09-3.335955879380e-02-9.313225746150e-09
     9.664187263500e-01 2.119687500000e+02-1.666195074110e+00-5.753453940160e-09
     1.200049986900e-10 5.170000000000e+02 2.316000000000e+03 0.000000000000e+00
     3.120000000000e+00 0.000000000000e+00 0.000000000000e+00-4.656612873080e-10
     4.242640000000e+05                                                         
E05 2024 05 30 21 40 00 4.752544453370e-03 3.495870259940e-12 0.000000000000e+00
     7.100000000000e+01-1.226250000000e+02 3.397284367670e-09 2.058045895930e+00
    -5.496665835380e-06 2.789895515890e-04 6.394460797310e-06 5.440612840650e+03
     4.236000000000e+05 3.539025783540e-08-2.132896734360e+00-2.421438694000e-08
     9.611046764280e-01 2.034375000000e+02-1.027169385410e+00-5.801313076550e-09
    -2.142946405180e-10 5.170000000000e+02 2.316000000000e+03 0.000000000000e+00
     3.120000000000e+00 0.000000000000e+00 4.656612873080e-10 2.328306436540e-10
     4.242640000000e+05                                                         
E34 2024 05 30 21 40 00-1.142285764220e-04-2.160049916710e-12 0.000000000000e+00
     7.100000000000e+01 3.628125000000e+01 2.401885762470e-09 4.706141951530e-01
     1.847743988040e-06 3.112856065850e-04 8.970499038700e-06 5.440615629200e+03
     4.236000000000e+05-2.980232238770e-08 2.057063705900e+00-9.313225746150e-09
     9.998197808160e-01 1.675312500000e+02 1.883118047380e+00-5.313792769370e-09
     1.500062483620e-10 5.170000000000e+02 2.316000000000e+03 0.000000000000e+00
     3.120000000000e+00 0.000000000000e+00 2.561137080190e-09 2.793967723850e-09
     4.242640000000e+05                                                         
E31 2024 05 30 21 40 00-2.498790854590e-05-1.037392394210e-12 0.000000000000e+00
     7.100000000000e+01 6.831250000000e+01 3.220134131510e-09 2.280912725830e+00
     3.188848495480e-06 1.694221282380e-04 6.511807441710e-06 5.440601022720e+03
     4.236000000000e+05-6.705522537230e-08-3.342502437790e-02 4.284083843230e-08
     9.663890305760e-01 2.040625000000e+02-1.772375799780e+00-5.684522497460e-09
     1.864363372500e-10 5.170000000000e+02 2.316000000000e+03 0.000000000000e+00
     3.120000000000e+00 0.000000000000e+00 2.793967723850e-09 2.561137080190e-09
     4.242640000000e+05                                                         
E24 2024 05 30 21 40 00-7.917424081820e-04-2.108890839740e-11 0.000000000000e+00
     7.100000000000e+01 7.503125000000e+01 3.315138088810e-09-1.238525033740e+00
     3.566965460780e-06 4.983041435480e-04 6.459653377530e-06 5.440610181810e+03
     4.236000000000e+05 3.725290298460e-09-3.033625718120e-02 2.793967723850e-08
     9.642466397140e-01 2.034687500000e+02 9.734634405450e-01-5.766311618600e-09
     1.803646557690e-10 5.170000000000e+02 2.316000000000e+03 0.000000000000e+00
     3.120000000000e+00 0.000000000000e+00-6.286427378650e-09-7.916241884230e-09
     4.242640000000e+05                                                         
E25 2024 05 30 21 40 00 5.146081093700e-06 4.547473508860e-13 0.000000000000e+00
     7.100000000000e+01 7.490625000000e+01 3.271922002970e-09 6.101379003610e-01
     3.457069396970e-06 1.183684216810e-04 6.079673767090e-06 5.440604394910e+03
     4.236000000000e+05 5.587935447690e-09-3.335955879380e-02-9.313225746150e-09
     9.664187263500e-01 2.119687500000e+02-1.666195074110e+00-5.753453940160e-09
     1.200049986900e-10 2.580000000000e+02 2.316000000000e+03 0.000000000000e+00
     3.120000000000e+00 0.000000000000e+00 0.000000000000e+00 0.000000000000e+00
     4.243200000000e+05                                                         
